[
    {
        "Altitude(m)": 702828.2869120585,
        "Argument of Periapsis(deg)": 0.006834072711976239,
        "Eccentricity": 0.0,
        "Inclination(deg)": 45.0,
        "Latitude(deg)": 6.636484145344606,
        "Longitude(deg)": -92.09751523788985,
        "Mean Anomaly(deg)": -189.44367001151147,
        "RAAN(deg)": 194.9935488351251,
        "Satellite Name": "Constellation 1 868",
        "Satellite Number": 868,
        "Semi-Major Axis(m)": 7083131.272910544,
        "Time(s)": 114
    },
    {
        "Altitude(m)": 702830.7078078977,
        "Argument of Periapsis(deg)": 0.006894020718221645,
        "Eccentricity": 0.0,
        "Inclination(deg)": 45.0,
        "Latitude(deg)": 6.593553615969218,
        "Longitude(deg)": -92.05818507210961,
        "Mean Anomaly(deg)": -189.38296887126162,
        "RAAN(deg)": 194.99349224595954,
        "Satellite Name": "Constellation 1 868",
        "Satellite Number": 868,
        "Semi-Major Axis(m)": 7083131.272910544,
        "Time(s)": 115
    },
    {
        "Altitude(m)": 702833.1492328082,
        "Argument of Periapsis(deg)": 0.006953968724467052,
        "Eccentricity": 0.0,
        "Inclination(deg)": 45.0,
        "Latitude(deg)": 6.550619284663986,
        "Longitude(deg)": -92.0188624275541,
        "Mean Anomaly(deg)": -189.32226773101172,
        "RAAN(deg)": 194.99343565679393,
        "Satellite Name": "Constellation 1 868",
        "Satellite Number": 868,
        "Semi-Major Axis(m)": 7083131.272910544,
        "Time(s)": 116
    },
    {
        "Altitude(m)": 702835.6111944962,
        "Argument of Periapsis(deg)": 0.007013916730712457,
        "Eccentricity": 0.0,
        "Inclination(deg)": 45.0,
        "Latitude(deg)": 6.507681177476357,
        "Longitude(deg)": -91.97954725462843,
        "Mean Anomaly(deg)": -189.2615665907618,
        "RAAN(deg)": 194.99337906762838,
        "Satellite Name": "Constellation 1 868",
        "Satellite Number": 868,
        "Semi-Major Axis(m)": 7083131.272910544,
        "Time(s)": 117
    },
    {
        "Altitude(m)": 702838.0937005829,
        "Argument of Periapsis(deg)": 0.007073864736957864,
        "Eccentricity": 0.0,
        "Inclination(deg)": 45.0,
        "Latitude(deg)": 6.464739320439321,
        "Longitude(deg)": -91.94023950375392,
        "Mean Anomaly(deg)": -189.20086545051188,
        "RAAN(deg)": 194.99332247846283,
        "Satellite Name": "Constellation 1 868",
        "Satellite Number": 868,
        "Semi-Major Axis(m)": 7083131.272910544,
        "Time(s)": 118
    },
    {
        "Altitude(m)": 702840.5967585987,
        "Argument of Periapsis(deg)": 0.0071338127432032696,
        "Eccentricity": 0.0,
        "Inclination(deg)": 45.0,
        "Latitude(deg)": 6.421793739571715,
        "Longitude(deg)": -91.9009392934652,
        "Mean Anomaly(deg)": -189.14016431026195,
        "RAAN(deg)": 194.99326588929725,
        "Satellite Name": "Constellation 1 868",
        "Satellite Number": 868,
        "Semi-Major Axis(m)": 7083131.272910544,
        "Time(s)": 119
    },
    {
        "Altitude(m)": 702843.1203759869,
        "Argument of Periapsis(deg)": 0.007193760749448674,
        "Eccentricity": 0.0,
        "Inclination(deg)": 45.0,
        "Latitude(deg)": 6.37884446087815,
        "Longitude(deg)": -91.86164623802193,
        "Mean Anomaly(deg)": -189.0794631700121,
        "RAAN(deg)": 194.9932093001317,
        "Satellite Name": "Constellation 1 868",
        "Satellite Number": 868,
        "Semi-Major Axis(m)": 7083131.272910544,
        "Time(s)": 120
    },
    {
        "Altitude(m)": 702845.6645601023,
        "Argument of Periapsis(deg)": 0.007253708755694079,
        "Eccentricity": 0.0,
        "Inclination(deg)": 45.0,
        "Latitude(deg)": 6.335891510349115,
        "Longitude(deg)": -91.82236045599082,
        "Mean Anomaly(deg)": -189.01876202976217,
        "RAAN(deg)": 194.9931527109661,
        "Satellite Name": "Constellation 1 868",
        "Satellite Number": 868,
        "Semi-Major Axis(m)": 7083131.272910544,
        "Time(s)": 121
    },
    {
        "Altitude(m)": 702848.2293182038,
        "Argument of Periapsis(deg)": 0.0073136567619394854,
        "Eccentricity": 0.0,
        "Inclination(deg)": 45.0,
        "Latitude(deg)": 6.292934913961421,
        "Longitude(deg)": -91.78308189785768,
        "Mean Anomaly(deg)": -188.9580608895123,
        "RAAN(deg)": 194.99309612180053,
        "Satellite Name": "Constellation 1 868",
        "Satellite Number": 868,
        "Semi-Major Axis(m)": 7083131.272910544,
        "Time(s)": 122
    },
    {
        "Altitude(m)": 702850.8146574603,
        "Argument of Periapsis(deg)": 0.0073736047681848904,
        "Eccentricity": 0.0,
        "Inclination(deg)": 45.0,
        "Latitude(deg)": 6.249974697677693,
        "Longitude(deg)": -91.74381051412391,
        "Mean Anomaly(deg)": -188.8973597492624,
        "RAAN(deg)": 194.99303953263495,
        "Satellite Name": "Constellation 1 868",
        "Satellite Number": 868,
        "Semi-Major Axis(m)": 7083131.272910544,
        "Time(s)": 123
    },
    {
        "Altitude(m)": 702853.4205849589,
        "Argument of Periapsis(deg)": 0.007433552774430298,
        "Eccentricity": 0.0,
        "Inclination(deg)": 45.0,
        "Latitude(deg)": 6.207010887447024,
        "Longitude(deg)": -91.70454625530682,
        "Mean Anomaly(deg)": -188.8366586090125,
        "RAAN(deg)": 194.9929829434694,
        "Satellite Name": "Constellation 1 868",
        "Satellite Number": 868,
        "Semi-Major Axis(m)": 7083131.272910544,
        "Time(s)": 124
    },
    {
        "Altitude(m)": 702856.0471076828,
        "Argument of Periapsis(deg)": 0.007493500780675703,
        "Eccentricity": 0.0,
        "Inclination(deg)": 45.0,
        "Latitude(deg)": 6.16404350920466,
        "Longitude(deg)": -91.66528907193921,
        "Mean Anomaly(deg)": -188.7759574687626,
        "RAAN(deg)": 194.9929263543038,
        "Satellite Name": "Constellation 1 868",
        "Satellite Number": 868,
        "Semi-Major Axis(m)": 7083131.272910544,
        "Time(s)": 125
    },
    {
        "Altitude(m)": 702858.6942325376,
        "Argument of Periapsis(deg)": 0.007553448786921108,
        "Eccentricity": 0.0,
        "Inclination(deg)": 45.0,
        "Latitude(deg)": 6.121072588872426,
        "Longitude(deg)": -91.62603908266665,
        "Mean Anomaly(deg)": -188.7152563285127,
        "RAAN(deg)": 194.99286976513824,
        "Satellite Name": "Constellation 1 868",
        "Satellite Number": 868,
        "Semi-Major Axis(m)": 7083131.272910544,
        "Time(s)": 126
    },
    {
        "Altitude(m)": 702861.3619663344,
        "Argument of Periapsis(deg)": 0.007613396793166514,
        "Eccentricity": 0.0,
        "Inclination(deg)": 45.0,
        "Latitude(deg)": 6.078098152358432,
        "Longitude(deg)": -91.58679590185889,
        "Mean Anomaly(deg)": -188.65455518826278,
        "RAAN(deg)": 194.99281317597269,
        "Satellite Name": "Constellation 1 868",
        "Satellite Number": 868,
        "Semi-Major Axis(m)": 7083131.272910544,
        "Time(s)": 127
    },
    {
        "Altitude(m)": 702864.0503157816,
        "Argument of Periapsis(deg)": 0.007673344799411918,
        "Eccentricity": 0.0,
        "Inclination(deg)": 45.0,
        "Latitude(deg)": 6.035120225557755,
        "Longitude(deg)": -91.54755964819229,
        "Mean Anomaly(deg)": -188.59385404801293,
        "RAAN(deg)": 194.9927565868071,
        "Satellite Name": "Constellation 1 868",
        "Satellite Number": 868,
        "Semi-Major Axis(m)": 7083131.272910544,
        "Time(s)": 128
    },
    {
        "Altitude(m)": 702866.7592875197,
        "Argument of Periapsis(deg)": 0.007733292805657325,
        "Eccentricity": 0.0,
        "Inclination(deg)": 45.0,
        "Latitude(deg)": 5.992138834351738,
        "Longitude(deg)": -91.5083302722611,
        "Mean Anomaly(deg)": -188.53315290776297,
        "RAAN(deg)": 194.99269999764155,
        "Satellite Name": "Constellation 1 868",
        "Satellite Number": 868,
        "Semi-Major Axis(m)": 7083131.272910544,
        "Time(s)": 129
    },
    {
        "Altitude(m)": 702869.4888880799,
        "Argument of Periapsis(deg)": 0.00779324081190273,
        "Eccentricity": 0.0,
        "Inclination(deg)": 45.0,
        "Latitude(deg)": 5.949154004608957,
        "Longitude(deg)": -91.46910772467508,
        "Mean Anomaly(deg)": -188.4724517675131,
        "RAAN(deg)": 194.99264340847594,
        "Satellite Name": "Constellation 1 868",
        "Satellite Number": 868,
        "Semi-Major Axis(m)": 7083131.272910544,
        "Time(s)": 130
    },
    {
        "Altitude(m)": 702872.2391239146,
        "Argument of Periapsis(deg)": 0.007853188818148135,
        "Eccentricity": 0.0,
        "Inclination(deg)": 45.0,
        "Latitude(deg)": 5.906165762184624,
        "Longitude(deg)": -91.4298919560589,
        "Mean Anomaly(deg)": -188.41175062726322,
        "RAAN(deg)": 194.9925868193104,
        "Satellite Name": "Constellation 1 868",
        "Satellite Number": 868,
        "Semi-Major Axis(m)": 7083131.272910544,
        "Time(s)": 131
    },
    {
        "Altitude(m)": 702875.0100013783,
        "Argument of Periapsis(deg)": 0.007913136824393542,
        "Eccentricity": 0.0,
        "Inclination(deg)": 45.0,
        "Latitude(deg)": 5.863174132920956,
        "Longitude(deg)": -91.39068291705205,
        "Mean Anomaly(deg)": -188.35104948701328,
        "RAAN(deg)": 194.9925302301448,
        "Satellite Name": "Constellation 1 868",
        "Satellite Number": 868,
        "Semi-Major Axis(m)": 7083131.272910544,
        "Time(s)": 132
    }
]